56719,ONEWEB-0683,2023,109.46,-1.0,+,87.91,Active,0,LEO,USA,UK,Unknown,Unknown,Unknown,1 56719U 23068K   25110.17665027 -.00000078  00000+0 -24212-3 0  9990,2 56719  87.9094 343.4801 0001796  94.1068 266.0268 13.15548851 94500,13.15548851,0.0001796,LEO
56720,ONEWEB-0684,2023,109.46,-1.0,+,87.91,Active,0,LEO,USA,UK,Unknown,Unknown,Unknown,1 56720U 23068L   25110.18457679  .00000119  00000+0  28333-3 0  9997,2 56720  87.9067 343.5114 0000896  28.2041 331.9138 13.15550763 94333,13.15550763,8.96e-05,LEO
56721,ONEWEB-0686,2023,109.37,-1.0,+,87.9,Active,0,LEO,USA,UK,Unknown,Unknown,Unknown,1 56721U 23068M   25110.47258711  .00000082  00000+0  18148-3 0  9998,2 56721  87.9024 313.0775 0001577  99.4688 260.6621 13.16595959 96790,13.16595959,0.0001577,LEO
56722,ONEWEB-0694,2023,109.37,-1.0,+,87.9,Active,0,LEO,USA,UK,Unknown,Unknown,Unknown,1 56722U 23068N   25109.52737506  .00000006  00000+0 -18510-4 0  9998,2 56722  87.9021 313.1842 0001862  99.6645 260.4696 13.16595488 96029,13.16595488,0.0001862,LEO
56723,ONEWEB-0696,2023,109.46,-1.0,+,87.91,Active,0,LEO,USA,UK,Unknown,Unknown,Unknown,1 56723U 23068P   25109.60940292 -.00000046  00000+0 -15637-3 0  9997,2 56723  87.9096 343.6452 0001651  71.8202 288.3108 13.15548927 93674,13.15548927,0.0001651,LEO
56724,ONEWEB-0703,2023,109.46,-1.0,+,87.91,Active,0,LEO,USA,UK,Unknown,Unknown,Unknown,1 56724U 23068Q   25109.61889840  .00000076  00000+0  16769-3 0  9998,2 56724  87.9076 343.6509 0002241  53.3533 306.7803 13.15549908 93569,13.15549908,0.0002241,LEO
56725,ONEWEB-0721,2023,108.89,-1.0,P,86.68,Active,0,LEO,USA,UK,Unknown,Unknown,Unknown,1 56725U 23068R   25109.74551172  .00000035  00000+0  48586-4 0  9995,2 56725  86.6830 220.4347 0001860 103.5073 256.6267 13.22432256101976,13.22432256,0.000186,LEO
61594,ONEWEB-0015,2024,109.8,-1.0,+,87.88,Active,0,LEO,USA,UK,Unknown,Unknown,Unknown,1 61594U 24188A   25110.25002315  .00001911  00000+0  53589-2 0  9998,2 61594  87.8828 105.3841 0002640  90.7016 293.6695 13.11382346 27107,13.11382346,0.000264,LEO
